[{"OBJECT_NAME":"COLIBRI-S (RS67S)","OBJECT_ID":"2024-199M","EPOCH":"2026-03-07T14:38:12.342912","MEAN_MOTION":15.43333194,"ECCENTRICITY":0.00077293,"INCLINATION":97.3157,"RA_OF_ASC_NODE":299.7619,"ARG_OF_PERICENTER":294.9389,"MEAN_ANOMALY":65.1055,"EPHEMERIS_TYPE":0,"CLASSIFICATION_TYPE":"U","NORAD_CAT_ID":61746,"ELEMENT_SET_NO":999,"REV_AT_EPOCH":12172,"BSTAR":0.00070599705,"MEAN_MOTION_DOT":0.00031494,"MEAN_MOTION_DDOT":0},{"OBJECT_NAME":"HORS 3 (RS81S)","OBJECT_ID":"2024-199U","EPOCH":"2026-03-07T15:25:46.437312","MEAN_MOTION":15.48208377,"ECCENTRICITY":0.00057779,"INCLINATION":97.3127,"RA_OF_ASC_NODE":300.8866,"ARG_OF_PERICENTER":301.106,"MEAN_ANOMALY":58.9623,"EPHEMERIS_TYPE":0,"CLASSIFICATION_TYPE":"U","NORAD_CAT_ID":61753,"ELEMENT_SET_NO":999,"REV_AT_EPOCH":12181,"BSTAR":0.00085237232,"MEAN_MOTION_DOT":0.00044994,"MEAN_MOTION_DDOT":0},{"OBJECT_NAME":"HORS 4 (RS82S)","OBJECT_ID":"2024-199V","EPOCH":"2026-03-07T14:02:56.291136","MEAN_MOTION":15.5097797,"ECCENTRICITY":0.00053963,"INCLINATION":97.31,"RA_OF_ASC_NODE":301.5175,"ARG_OF_PERICENTER":298.8168,"MEAN_ANOMALY":61.2542,"EPHEMERIS_TYPE":0,"CLASSIFICATION_TYPE":"U","NORAD_CAT_ID":61754,"ELEMENT_SET_NO":999,"REV_AT_EPOCH":12185,"BSTAR":0.00090773654,"MEAN_MOTION_DOT":0.00052863,"MEAN_MOTION_DDOT":0},{"OBJECT_NAME":"HORIZON (RS59S)","OBJECT_ID":"2024-199Y","EPOCH":"2026-03-07T15:25:57.380736","MEAN_MOTION":15.69564899,"ECCENTRICITY":0.00030213,"INCLINATION":97.3071,"RA_OF_ASC_NODE":305.3558,"ARG_OF_PERICENTER":262.1665,"MEAN_ANOMALY":97.9254,"EPHEMERIS_TYPE":0,"CLASSIFICATION_TYPE":"U","NORAD_CAT_ID":61757,"ELEMENT_SET_NO":999,"REV_AT_EPOCH":12210,"BSTAR":0.0013910105,"MEAN_MOTION_DOT":0.00166851,"MEAN_MOTION_DDOT":0},{"OBJECT_NAME":"ARCTICSAT 1 (RS74S)","OBJECT_ID":"2024-199AD","EPOCH":"2026-03-07T15:36:14.097024","MEAN_MOTION":15.65242625,"ECCENTRICITY":0.00034639,"INCLINATION":97.309,"RA_OF_ASC_NODE":304.8985,"ARG_OF_PERICENTER":261.6197,"MEAN_ANOMALY":98.4671,"EPHEMERIS_TYPE":0,"CLASSIFICATION_TYPE":"U","NORAD_CAT_ID":61762,"ELEMENT_SET_NO":999,"REV_AT_EPOCH":12207,"BSTAR":0.0012286773,"MEAN_MOTION_DOT":0.00123143,"MEAN_MOTION_DDOT":0},{"OBJECT_NAME":"SIT-2086","OBJECT_ID":"2024-199AF","EPOCH":"2026-03-07T14:07:02.989056","MEAN_MOTION":15.4751828,"ECCENTRICITY":0.00060537,"INCLINATION":97.312,"RA_OF_ASC_NODE":301.565,"ARG_OF_PERICENTER":281.7118,"MEAN_ANOMALY":78.3453,"EPHEMERIS_TYPE":0,"CLASSIFICATION_TYPE":"U","NORAD_CAT_ID":61764,"ELEMENT_SET_NO":999,"REV_AT_EPOCH":11869,"BSTAR":0.0006288767,"MEAN_MOTION_DOT":0.00032338,"MEAN_MOTION_DDOT":0},{"OBJECT_NAME":"RUZAEVKA 390 (RS44S)","OBJECT_ID":"2024-199AH","EPOCH":"2026-03-07T08:43:02.916480","MEAN_MOTION":16.12603448,"ECCENTRICITY":0.00029315,"INCLINATION":97.2775,"RA_OF_ASC_NODE":308.5975,"ARG_OF_PERICENTER":174.1619,"MEAN_ANOMALY":185.9701,"EPHEMERIS_TYPE":0,"CLASSIFICATION_TYPE":"U","NORAD_CAT_ID":61766,"ELEMENT_SET_NO":999,"REV_AT_EPOCH":11915,"BSTAR":0.0019528667,"MEAN_MOTION_DOT":0.02010087,"MEAN_MOTION_DDOT":0.0039146296},{"OBJECT_NAME":"HYPERVIEW 1G (RS66S)","OBJECT_ID":"2024-199AP","EPOCH":"2026-03-07T15:17:06.505440","MEAN_MOTION":15.57636014,"ECCENTRICITY":0.00066172,"INCLINATION":97.3085,"RA_OF_ASC_NODE":302.6556,"ARG_OF_PERICENTER":294.3522,"MEAN_ANOMALY":65.7043,"EPHEMERIS_TYPE":0,"CLASSIFICATION_TYPE":"U","NORAD_CAT_ID":61772,"ELEMENT_SET_NO":999,"REV_AT_EPOCH":11878,"BSTAR":0.0011051756,"MEAN_MOTION_DOT":0.00082334,"MEAN_MOTION_DDOT":0},{"OBJECT_NAME":"ALTAIR (RS65S)","OBJECT_ID":"2024-199AW","EPOCH":"2026-03-07T14:46:20.359488","MEAN_MOTION":15.34946781,"ECCENTRICITY":0.00122431,"INCLINATION":97.318,"RA_OF_ASC_NODE":296.6902,"ARG_OF_PERICENTER":316.5833,"MEAN_ANOMALY":43.4445,"EPHEMERIS_TYPE":0,"CLASSIFICATION_TYPE":"U","NORAD_CAT_ID":61779,"ELEMENT_SET_NO":999,"REV_AT_EPOCH":12152,"BSTAR":0.00037845117,"MEAN_MOTION_DOT":0.00012785,"MEAN_MOTION_DDOT":0},{"OBJECT_NAME":"ASRTU-1 (AO-123)","OBJECT_ID":"2024-199AY","EPOCH":"2026-03-07T14:15:12.565152","MEAN_MOTION":15.34011902,"ECCENTRICITY":0.00129935,"INCLINATION":97.3153,"RA_OF_ASC_NODE":296.1995,"ARG_OF_PERICENTER":318.6045,"MEAN_ANOMALY":41.4212,"EPHEMERIS_TYPE":0,"CLASSIFICATION_TYPE":"U","NORAD_CAT_ID":61781,"ELEMENT_SET_NO":999,"REV_AT_EPOCH":11834,"BSTAR":0.00039849735,"MEAN_MOTION_DOT":0.00013077,"MEAN_MOTION_DDOT":0},{"OBJECT_NAME":"TUSUR GO (RS78S)","OBJECT_ID":"2024-199AZ","EPOCH":"2026-03-07T14:13:50.149920","MEAN_MOTION":15.70049501,"ECCENTRICITY":0.00037428,"INCLINATION":97.3023,"RA_OF_ASC_NODE":304.3136,"ARG_OF_PERICENTER":285.8333,"MEAN_ANOMALY":74.2516,"EPHEMERIS_TYPE":0,"CLASSIFICATION_TYPE":"U","NORAD_CAT_ID":61782,"ELEMENT_SET_NO":999,"REV_AT_EPOCH":11889,"BSTAR":0.0014514612,"MEAN_MOTION_DOT":0.00177867,"MEAN_MOTION_DDOT":0},{"OBJECT_NAME":"SAMSAT-IONOSPHERE (RS75S)","OBJECT_ID":"2024-199BB","EPOCH":"2026-03-07T14:29:49.285824","MEAN_MOTION":15.49336606,"ECCENTRICITY":0.00088334,"INCLINATION":97.3115,"RA_OF_ASC_NODE":300.637,"ARG_OF_PERICENTER":302.9186,"MEAN_ANOMALY":57.1215,"EPHEMERIS_TYPE":0,"CLASSIFICATION_TYPE":"U","NORAD_CAT_ID":61784,"ELEMENT_SET_NO":999,"REV_AT_EPOCH":12179,"BSTAR":0.00092732808,"MEAN_MOTION_DOT":0.00051007,"MEAN_MOTION_DDOT":0},{"OBJECT_NAME":"RTU MIREA 1 (RS51S)","OBJECT_ID":"2024-199BC","EPOCH":"2026-03-07T14:30:31.869792","MEAN_MOTION":15.51232204,"ECCENTRICITY":0.00085236,"INCLINATION":97.3113,"RA_OF_ASC_NODE":301.0757,"ARG_OF_PERICENTER":297.9643,"MEAN_ANOMALY":62.0746,"EPHEMERIS_TYPE":0,"CLASSIFICATION_TYPE":"U","NORAD_CAT_ID":61785,"ELEMENT_SET_NO":999,"REV_AT_EPOCH":11867,"BSTAR":0.00094872804,"MEAN_MOTION_DOT":0.00055824,"MEAN_MOTION_DDOT":0},{"OBJECT_NAME":"TEVEL2-4","OBJECT_ID":"2025-052D","EPOCH":"2026-03-07T16:01:45.577632","MEAN_MOTION":15.3081784,"ECCENTRICITY":0.00046284,"INCLINATION":97.4017,"RA_OF_ASC_NODE":323.1028,"ARG_OF_PERICENTER":99.2619,"MEAN_ANOMALY":260.9145,"EPHEMERIS_TYPE":0,"CLASSIFICATION_TYPE":"U","NORAD_CAT_ID":63213,"ELEMENT_SET_NO":999,"REV_AT_EPOCH":5456,"BSTAR":0.00096054004,"MEAN_MOTION_DOT":0.00028615,"MEAN_MOTION_DDOT":0},{"OBJECT_NAME":"TEVEL2-5","OBJECT_ID":"2025-052E","EPOCH":"2026-03-07T14:43:10.037568","MEAN_MOTION":15.3069537,"ECCENTRICITY":0.00046331,"INCLINATION":97.4016,"RA_OF_ASC_NODE":323.0217,"ARG_OF_PERICENTER":99.7623,"MEAN_ANOMALY":260.4141,"EPHEMERIS_TYPE":0,"CLASSIFICATION_TYPE":"U","NORAD_CAT_ID":63214,"ELEMENT_SET_NO":999,"REV_AT_EPOCH":5455,"BSTAR":0.0009348168,"MEAN_MOTION_DOT":0.00027738,"MEAN_MOTION_DDOT":0},{"OBJECT_NAME":"TEVEL2-6","OBJECT_ID":"2025-052F","EPOCH":"2026-03-07T14:57:14.140512","MEAN_MOTION":15.30655039,"ECCENTRICITY":0.00047415,"INCLINATION":97.402,"RA_OF_ASC_NODE":323.0171,"ARG_OF_PERICENTER":100.3069,"MEAN_ANOMALY":259.8707,"EPHEMERIS_TYPE":0,"CLASSIFICATION_TYPE":"U","NORAD_CAT_ID":63215,"ELEMENT_SET_NO":999,"REV_AT_EPOCH":5455,"BSTAR":0.0009371853,"MEAN_MOTION_DOT":0.00027774,"MEAN_MOTION_DDOT":0}]
