COLIBRI-S (RS67S)       
1 61746U 24199M   26066.60986508  .00031494  00000+0  70600-3 0  9997
2 61746  97.3157 299.7619 0007729 294.9389  65.1055 15.43333194121721
HORS 3 (RS81S)          
1 61753U 24199U   26066.64289858  .00044994  00000+0  85237-3 0  9994
2 61753  97.3127 300.8866 0005777 301.1060  58.9623 15.48208377121812
HORS 4 (RS82S)          
1 61754U 24199V   26066.58537374  .00052863  00000+0  90774-3 0  9993
2 61754  97.3100 301.5175 0005396 298.8168  61.2542 15.50977970121859
HORIZON (RS59S)         
1 61757U 24199Y   26066.64302524  .00166851  00000+0  13910-2 0  9999
2 61757  97.3071 305.3558 0003021 262.1665  97.9254 15.69564899122102
ARCTICSAT 1 (RS74S)     
1 61762U 24199AD  26066.65016316  .00123143  00000+0  12287-2 0  9990
2 61762  97.3090 304.8985 0003463 261.6197  98.4671 15.65242625122072
SIT-2086                
1 61764U 24199AF  26066.58822904  .00032338  00000+0  62888-3 0  9990
2 61764  97.3120 301.5650 0006053 281.7118  78.3453 15.47518280118696
RUZAEVKA 390 (RS44S)    
1 61766U 24199AH  26066.36322820  .02010087  39146-2  19529-2 0  9998
2 61766  97.2775 308.5975 0002931 174.1619 185.9701 16.12603448119159
HYPERVIEW 1G (RS66S)    
1 61772U 24199AP  26066.63688085  .00082334  00000+0  11052-2 0  9992
2 61772  97.3085 302.6556 0006617 294.3522  65.7043 15.57636014118789
ALTAIR (RS65S)          
1 61779U 24199AW  26066.61551342  .00012785  00000+0  37845-3 0  9994
2 61779  97.3180 296.6902 0012243 316.5833  43.4445 15.34946781121528
ASRTU-1 (AO-123)        
1 61781U 24199AY  26066.59389543  .00013077  00000+0  39850-3 0  9999
2 61781  97.3153 296.1995 0012993 318.6045  41.4212 15.34011902118342
TUSUR GO (RS78S)        
1 61782U 24199AZ  26066.59294155  .00177867  00000+0  14515-2 0  9992
2 61782  97.3023 304.3136 0003742 285.8333  74.2516 15.70049501118892
SAMSAT-IONOSPHERE (RS7*)
1 61784U 24199BB  26066.60404266  .00051007  00000+0  92733-3 0  9998
2 61784  97.3115 300.6370 0008833 302.9186  57.1215 15.49336606121798
RTU MIREA 1 (RS51S)     
1 61785U 24199BC  26066.60453553  .00055824  00000+0  94873-3 0  9990
2 61785  97.3113 301.0757 0008523 297.9643  62.0746 15.51232204118677
TEVEL2-4                
1 63213U 25052D   26066.66788863  .00028615  00000+0  96054-3 0  9999
2 63213  97.4017 323.1028 0004628  99.2619 260.9145 15.30817840 54564
TEVEL2-5                
1 63214U 25052E   26066.61331062  .00027738  00000+0  93482-3 0  9997
2 63214  97.4016 323.0217 0004633  99.7623 260.4141 15.30695370 54551
TEVEL2-6                
1 63215U 25052F   26066.62308033  .00027774  00000+0  93719-3 0  9994
2 63215  97.4020 323.0171 0004741 100.3069 259.8707 15.30655039 54557
